[{"OBJECT_NAME":"STARLINK-3960","OBJECT_ID":"2022-053D","EPOCH":"2026-03-09T22:56:54.295872","MEAN_MOTION":15.08836522,"ECCENTRICITY":0.00012698,"INCLINATION":53.2175,"RA_OF_ASC_NODE":152.8769,"ARG_OF_PERICENTER":85.1783,"MEAN_ANOMALY":274.9354,"EPHEMERIS_TYPE":0,"CLASSIFICATION_TYPE":"U","NORAD_CAT_ID":52659,"ELEMENT_SET_NO":999,"REV_AT_EPOCH":21126,"BSTAR":2.3668795e-5,"MEAN_MOTION_DOT":8.9e-7,"MEAN_MOTION_DDOT":0},{"OBJECT_NAME":"SL-24 PLAT","OBJECT_ID":"2014-033AR","EPOCH":"2026-03-09T22:47:27.152448","MEAN_MOTION":15.0919716,"ECCENTRICITY":0.00052059,"INCLINATION":98.0981,"RA_OF_ASC_NODE":61.9435,"ARG_OF_PERICENTER":212.2329,"MEAN_ANOMALY":147.8581,"EPHEMERIS_TYPE":0,"CLASSIFICATION_TYPE":"U","NORAD_CAT_ID":40049,"ELEMENT_SET_NO":999,"REV_AT_EPOCH":63724,"BSTAR":0.00046923352,"MEAN_MOTION_DOT":7.393e-5,"MEAN_MOTION_DDOT":0}]
